JCSAT-3A                
1 29272U 06033A   26194.22992623 -.00000347  00000+0  00000+0 0  9994
2 29272   0.0121 340.5163 0002020 141.8792  19.4972  1.00277450 48006
KOREASAT 5 (MUGUNGWHA 5)
1 29349U 06034A   26194.58337461 -.00000364  00000+0  00000+0 0  9991
2 29349   1.8509  82.6623 0001789  81.7866  90.0802  1.00270473 41581
DIRECTV 9S              
1 29494U 06043A   26194.61227348 -.00000120  00000+0  00000+0 0  9998
2 29494   2.4866  80.5834 0004980  33.6288 296.4892  1.00270968 51644
OPTUS D1                
1 29495U 06043B   26194.59112671 -.00000191  00000+0  00000+0 0  9996
2 29495   3.1003  79.3310 0003306  31.2251 185.6727  1.00270121 72387
BADR-4                  
1 29526U 06051A   26194.56779405  .00000150  00000+0  00000+0 0  9995
2 29526   2.0705  80.8297 0004707  29.3199  60.1451  1.00270316 51536
WILDBLUE-1              
1 29643U 06054A   26194.61028014 -.00000056  00000+0  00000+0 0  9993
2 29643   2.8689  80.1510 0001246  37.8425 281.9812  1.00271078 54057
SKYNET 5A               
1 30794U 07007B   26194.57990793 -.00000280  00000+0  00000+0 0  9997
2 30794   5.3651  73.4181 0003699  42.6342 119.3769  1.00269968 70966
ANIK F3                 
1 31102U 07009A   26194.60880681 -.00000006  00000+0  00000+0 0  9997
2 31102   1.2635  83.5318 0002415  27.1880 281.2090  1.00270759 46825
ASTRA 1L                
1 31306U 07016A   26194.48469211 -.00000189  00000+0  00000+0 0  9991
2 31306   1.3873  81.3655 0005164  33.3921 326.5844  1.00271336 45242
GALAXY 17 (G-17)        
1 31307U 07016B   26194.33308944 -.00000212  00000+0  00000+0 0  9998
2 31307   3.0354  79.5702 0003548  34.5905 211.9325  1.00270253 70063
INTELSAT 11 (IS-11)     
1 32253U 07044B   26194.27799500 -.00000118  00000+0  00000+0 0  9990
2 32253   3.6309  78.3524 0004116 100.7185 223.1796  0.99051585 68704
WGS F1 (USA 195)        
1 32258U 07046A   26194.48131208 -.00000271  00000+0  00000+0 0  9995
2 32258   0.0152  66.1958 0000430 163.8151 192.1169  1.00269562 52598
SKYNET 5B               
1 32294U 07056B   26194.32753156  .00000132  00000+0  00000+0 0  9996
2 32294   5.3162  73.1915 0003729  40.7943 320.2204  1.00273791 68460
ASTRA 4A                
1 32299U 07057A   26194.63169904  .00000028  00000+0  00000+0 0  9992
2 32299   0.0443 283.6535 0002249 195.2782  44.7734  1.00270779 51919
HORIZONS-2              
1 32388U 07063B   26194.54638728 -.00000260  00000+0  00000+0 0  9992
2 32388   2.6677  80.3024 0003518  19.2771 314.7354  1.00269681 68076
THURAYA-3               
1 32404U 08001A   26194.61433895  .00000002  00000+0  00000+0 0  9993
2 32404   6.0329  35.8190 0002095  76.8734 103.6475  1.00271389 67754
THOR 5                  
1 32487U 08006A   26194.34701052 -.00000012  00000+0  00000+0 0  9994
2 32487   0.0534 235.3925 0002273 245.8359 294.1590  1.00270867 67573
AMC-14                  
1 32708U 08011A   26194.55114336 -.00000180  00000+0  00000+0 0  9998
2 32708  24.0406  20.2013 0039258   8.4498 179.0681  1.00420259 68432
DIRECTV 11              
1 32729U 08013A   26194.61262015 -.00000130  00000+0  00000+0 0  9993
2 32729   0.0109 269.6737 0000115 300.2834 202.8868  1.00271811 45859
ICO G1                  
1 32763U 08016A   26194.51503031 -.00000179  00000+0  00000+0 0  9992
2 32763   5.5301  36.0556 0002413  63.7375 284.1531  1.00269278 66802
VINASAT-1               
1 32767U 08018A   26194.51588825 -.00000332  00000+0  00000+0 0  9993
2 32767   0.0324 296.3012 0001404 196.6072 116.1408  1.00270032 66850
STAR ONE C2             
1 32768U 08018B   26194.54812062 -.00000282  00000+0  00000+0 0  9994
2 32768   1.3053  82.2142 0002675  46.7395 294.7887  1.00271372 66913
AMOS-3                  
1 32794U 08022A   26194.57256073  .00000011  00000+0  00000+0 0  9994
2 32794   0.5210  85.8291 0002986  84.9770  25.7520  1.00487650 82606
GALAXY 18 (G-18)        
1 32951U 08024A   26194.60794013  .00000021  00000+0  00000+0 0  9997
2 32951   0.0179  40.7393 0002806  85.0093 261.5857  1.00270977 46115
ZHONGXING-9             
1 33051U 08028A   26194.57930126 -.00000253  00000+0  00000+0 0  9994
2 33051   0.8329  85.0000 0003261  23.4380 123.9312  1.00269830 66306
SKYNET 5C               
1 33055U 08030A   26194.41488326 -.00000147  00000+0  00000+0 0  9996
2 33055   3.8535  76.7282 0004038  45.0874 301.0284  1.00272337 66215
TURKSAT 3A              
1 33056U 08030B   26194.56935405  .00000142  00000+0  00000+0 0  9992
2 33056   0.0305  70.8569 0004892  22.6786  84.8567  1.00269374 52621
ECHOSTAR 11             
1 33207U 08035A   26194.61054014 -.00000063  00000+0  00000+0 0  9992
2 33207   1.0712  83.8744 0002176  17.6722 299.9284  1.00270615 51475
SUPERBIRD-C2            
1 33274U 08038A   26194.58792003 -.00000313  00000+0  00000+0 0  9990
2 33274   2.4267  80.9350 0006131  39.5968 158.5762  1.00269646105990
INMARSAT 4-F3           
1 33278U 08039A   26194.41704983 -.00000146  00000+0  00000+0 0  9991
2 33278   4.3147  31.6906 0002806  83.9617 227.7818  1.00272527 46808
NIMIQ 4                 
1 33373U 08044A   26194.61608684  .00000000  00000+0  00000+0 0  9994
2 33373   0.0398  71.1446 0001918  43.4798 316.6889  1.00268098 65240
GALAXY 19 (G-19)        
1 33376U 08045A   26194.61305348 -.00000143  00000+0  00000+0 0  9998
2 33376   0.0619 250.2914 0002288 234.3457 290.5499  1.00272752 65163
